INTELSAT 18 (IS-18)     
1 37834U 11056A   26094.85366756  .00000054  00000+0  00000+0 0  9992
2 37834   0.0161 249.7351 0001983 127.3042 303.4460  1.00273957 53075
EUTELSAT 16A            
1 37836U 11057A   26094.89247326  .00000105  00000+0  00000+0 0  9997
2 37836   0.0583  16.2641 0005547   2.0035 152.2139  1.00273142  6601
VIASAT-1                
1 37843U 11059A   26094.58124459 -.00000024  00000+0  00000+0 0  9995
2 37843   0.0181 225.8067 0002529 152.4126 268.8224  1.00273130 46588
ASIASAT 7               
1 37933U 11069A   26094.93737231 -.00000333  00000+0  00000+0 0  9996
2 37933   0.0184 181.4666 0001782 195.7117 259.0139  1.00274562 44128
BEIDOU-2 IGSO-5         
1 37948U 11073A   26093.97039089 -.00000174  00000+0  00000+0 0  9999
2 37948  47.8149 272.4589 0109539 220.8427 142.8662  1.00265759 52398
LUCH-5A                 
1 37951U 11074B   26094.70847182 -.00000046  00000+0  00000+0 0  9995
2 37951   8.5680  74.8738 0003167 285.2994 254.8211  1.00271287 52319
NIGCOMSAT 1R            
1 38014U 11077A   26094.82639654  .00000146  00000+0  00000+0 0  9995
2 38014   0.0372 239.3734 0002911  96.3620 197.4057  1.00268954 52229
WGS F4 (USA 233)        
1 38070U 12003A   26094.89280933 -.00000214  00000+0  00000+0 0  9993
2 38070   0.0169 193.9876 0000197 227.5628 181.4550  1.00271167 43419
SES-4                   
1 38087U 12007A   26094.88493324 -.00000167  00000+0  00000+0 0  9991
2 38087   0.0272  65.1969 0002254 315.8787 108.6988  1.00273207 51498
BEIDOU-2 G5             
1 38091U 12008A   26094.90095720  .00000058  00000+0  00000+0 0  9996
2 38091   3.3917  70.1175 0013207 261.3439 244.8788  1.00276145 51630
MUOS-1                  
1 38093U 12009A   26094.86952763 -.00000125  00000+0  00000+0 0  9999
2 38093   5.3269  47.1834 0058931 359.8311 359.2479  1.00271607 51709
INTELSAT 22 (IS-22)     
1 38098U 12011A   26094.91483429 -.00000058  00000+0  00000+0 0  9996
2 38098   0.0113 216.4866 0001670 163.1963 214.9820  1.00271516  6455
APSTAR-7                
1 38107U 12013A   26094.95599391 -.00000101  00000+0  00000+0 0  9998
2 38107   0.0159 218.9142 0002848 174.3799 220.6236  1.00272272 51072
YAHSAT 1B               
1 38245U 12016A   26094.89870387  .00000127  00000+0  00000+0 0  9991
2 38245   0.0910  87.2422 0002731 292.3755 184.7091  1.00270437 44872
AEHF-2 (USA 235)        
1 38254U 12019A   26094.74339865 -.00000132  00000+0  00000+0 0  9996
2 38254   6.4812  58.0145 0002858 302.6143  83.5796  1.00271257  6256
JCSAT-13                
1 38331U 12023A   26094.91387059 -.00000355  00000+0  00000+0 0  9991
2 38331   0.0442  77.6496 0002679 327.0859 241.4734  1.00270483 50800
VINASAT-2               
1 38332U 12023B   26094.91543060 -.00000328  00000+0  00000+0 0  9998
2 38332   0.0392  46.2876 0002834 347.1596 261.1738  1.00272610 45927
