[{"OBJECT_NAME":"INTELSAT 18 (IS-18)","OBJECT_ID":"2011-056A","EPOCH":"2026-04-04T20:29:16.877184","MEAN_MOTION":1.00273957,"ECCENTRICITY":0.00019837,"INCLINATION":0.0161,"RA_OF_ASC_NODE":249.7351,"ARG_OF_PERICENTER":127.3042,"MEAN_ANOMALY":303.446,"EPHEMERIS_TYPE":0,"CLASSIFICATION_TYPE":"U","NORAD_CAT_ID":37834,"ELEMENT_SET_NO":999,"REV_AT_EPOCH":5307,"BSTAR":0,"MEAN_MOTION_DOT":5.4e-7,"MEAN_MOTION_DDOT":0},{"OBJECT_NAME":"EUTELSAT 16A","OBJECT_ID":"2011-057A","EPOCH":"2026-04-04T21:25:09.689664","MEAN_MOTION":1.00273142,"ECCENTRICITY":0.00055473,"INCLINATION":0.0583,"RA_OF_ASC_NODE":16.2641,"ARG_OF_PERICENTER":2.0035,"MEAN_ANOMALY":152.2139,"EPHEMERIS_TYPE":0,"CLASSIFICATION_TYPE":"U","NORAD_CAT_ID":37836,"ELEMENT_SET_NO":999,"REV_AT_EPOCH":660,"BSTAR":0,"MEAN_MOTION_DOT":1.05e-6,"MEAN_MOTION_DDOT":0},{"OBJECT_NAME":"VIASAT-1","OBJECT_ID":"2011-059A","EPOCH":"2026-04-04T13:56:59.532576","MEAN_MOTION":1.0027313,"ECCENTRICITY":0.0002529,"INCLINATION":0.0181,"RA_OF_ASC_NODE":225.8067,"ARG_OF_PERICENTER":152.4126,"MEAN_ANOMALY":268.8224,"EPHEMERIS_TYPE":0,"CLASSIFICATION_TYPE":"U","NORAD_CAT_ID":37843,"ELEMENT_SET_NO":999,"REV_AT_EPOCH":4658,"BSTAR":0,"MEAN_MOTION_DOT":-2.4e-7,"MEAN_MOTION_DDOT":0},{"OBJECT_NAME":"ASIASAT 7","OBJECT_ID":"2011-069A","EPOCH":"2026-04-04T22:29:48.967584","MEAN_MOTION":1.00274562,"ECCENTRICITY":0.00017821,"INCLINATION":0.0184,"RA_OF_ASC_NODE":181.4666,"ARG_OF_PERICENTER":195.7117,"MEAN_ANOMALY":259.0139,"EPHEMERIS_TYPE":0,"CLASSIFICATION_TYPE":"U","NORAD_CAT_ID":37933,"ELEMENT_SET_NO":999,"REV_AT_EPOCH":4412,"BSTAR":0,"MEAN_MOTION_DOT":-3.33e-6,"MEAN_MOTION_DDOT":0},{"OBJECT_NAME":"BEIDOU-2 IGSO-5","OBJECT_ID":"2011-073A","EPOCH":"2026-04-03T23:17:21.772896","MEAN_MOTION":1.00265759,"ECCENTRICITY":0.01095393,"INCLINATION":47.8149,"RA_OF_ASC_NODE":272.4589,"ARG_OF_PERICENTER":220.8427,"MEAN_ANOMALY":142.8662,"EPHEMERIS_TYPE":0,"CLASSIFICATION_TYPE":"U","NORAD_CAT_ID":37948,"ELEMENT_SET_NO":999,"REV_AT_EPOCH":5239,"BSTAR":0,"MEAN_MOTION_DOT":-1.74e-6,"MEAN_MOTION_DDOT":0},{"OBJECT_NAME":"LUCH-5A","OBJECT_ID":"2011-074B","EPOCH":"2026-04-04T17:00:11.965248","MEAN_MOTION":1.00271287,"ECCENTRICITY":0.00031678,"INCLINATION":8.568,"RA_OF_ASC_NODE":74.8738,"ARG_OF_PERICENTER":285.2994,"MEAN_ANOMALY":254.8211,"EPHEMERIS_TYPE":0,"CLASSIFICATION_TYPE":"U","NORAD_CAT_ID":37951,"ELEMENT_SET_NO":999,"REV_AT_EPOCH":5231,"BSTAR":0,"MEAN_MOTION_DOT":-4.6e-7,"MEAN_MOTION_DDOT":0},{"OBJECT_NAME":"NIGCOMSAT 1R","OBJECT_ID":"2011-077A","EPOCH":"2026-04-04T19:50:00.661056","MEAN_MOTION":1.00268954,"ECCENTRICITY":0.0002911,"INCLINATION":0.0372,"RA_OF_ASC_NODE":239.3734,"ARG_OF_PERICENTER":96.362,"MEAN_ANOMALY":197.4057,"EPHEMERIS_TYPE":0,"CLASSIFICATION_TYPE":"U","NORAD_CAT_ID":38014,"ELEMENT_SET_NO":999,"REV_AT_EPOCH":5222,"BSTAR":0,"MEAN_MOTION_DOT":1.46e-6,"MEAN_MOTION_DDOT":0},{"OBJECT_NAME":"WGS F4 (USA 233)","OBJECT_ID":"2012-003A","EPOCH":"2026-04-04T21:25:38.726112","MEAN_MOTION":1.00271167,"ECCENTRICITY":1.978e-5,"INCLINATION":0.0169,"RA_OF_ASC_NODE":193.9876,"ARG_OF_PERICENTER":227.5628,"MEAN_ANOMALY":181.455,"EPHEMERIS_TYPE":0,"CLASSIFICATION_TYPE":"U","NORAD_CAT_ID":38070,"ELEMENT_SET_NO":999,"REV_AT_EPOCH":4341,"BSTAR":0,"MEAN_MOTION_DOT":-2.14e-6,"MEAN_MOTION_DDOT":0},{"OBJECT_NAME":"SES-4","OBJECT_ID":"2012-007A","EPOCH":"2026-04-04T21:14:18.231936","MEAN_MOTION":1.00273207,"ECCENTRICITY":0.00022543,"INCLINATION":0.0272,"RA_OF_ASC_NODE":65.1969,"ARG_OF_PERICENTER":315.8787,"MEAN_ANOMALY":108.6988,"EPHEMERIS_TYPE":0,"CLASSIFICATION_TYPE":"U","NORAD_CAT_ID":38087,"ELEMENT_SET_NO":999,"REV_AT_EPOCH":5149,"BSTAR":0,"MEAN_MOTION_DOT":-1.67e-6,"MEAN_MOTION_DDOT":0},{"OBJECT_NAME":"BEIDOU-2 G5","OBJECT_ID":"2012-008A","EPOCH":"2026-04-04T21:37:22.702080","MEAN_MOTION":1.00276145,"ECCENTRICITY":0.00132075,"INCLINATION":3.3917,"RA_OF_ASC_NODE":70.1175,"ARG_OF_PERICENTER":261.3439,"MEAN_ANOMALY":244.8788,"EPHEMERIS_TYPE":0,"CLASSIFICATION_TYPE":"U","NORAD_CAT_ID":38091,"ELEMENT_SET_NO":999,"REV_AT_EPOCH":5163,"BSTAR":0,"MEAN_MOTION_DOT":5.8e-7,"MEAN_MOTION_DDOT":0},{"OBJECT_NAME":"MUOS-1","OBJECT_ID":"2012-009A","EPOCH":"2026-04-04T20:52:07.187232","MEAN_MOTION":1.00271607,"ECCENTRICITY":0.00589311,"INCLINATION":5.3269,"RA_OF_ASC_NODE":47.1834,"ARG_OF_PERICENTER":359.8311,"MEAN_ANOMALY":359.2479,"EPHEMERIS_TYPE":0,"CLASSIFICATION_TYPE":"U","NORAD_CAT_ID":38093,"ELEMENT_SET_NO":999,"REV_AT_EPOCH":5170,"BSTAR":0,"MEAN_MOTION_DOT":-1.25e-6,"MEAN_MOTION_DDOT":0},{"OBJECT_NAME":"INTELSAT 22 (IS-22)","OBJECT_ID":"2012-011A","EPOCH":"2026-04-04T21:57:21.682656","MEAN_MOTION":1.00271516,"ECCENTRICITY":0.00016704,"INCLINATION":0.0113,"RA_OF_ASC_NODE":216.4866,"ARG_OF_PERICENTER":163.1963,"MEAN_ANOMALY":214.982,"EPHEMERIS_TYPE":0,"CLASSIFICATION_TYPE":"U","NORAD_CAT_ID":38098,"ELEMENT_SET_NO":999,"REV_AT_EPOCH":645,"BSTAR":0,"MEAN_MOTION_DOT":-5.8e-7,"MEAN_MOTION_DDOT":0},{"OBJECT_NAME":"APSTAR-7","OBJECT_ID":"2012-013A","EPOCH":"2026-04-04T22:56:37.873824","MEAN_MOTION":1.00272272,"ECCENTRICITY":0.0002848,"INCLINATION":0.0159,"RA_OF_ASC_NODE":218.9142,"ARG_OF_PERICENTER":174.3799,"MEAN_ANOMALY":220.6236,"EPHEMERIS_TYPE":0,"CLASSIFICATION_TYPE":"U","NORAD_CAT_ID":38107,"ELEMENT_SET_NO":999,"REV_AT_EPOCH":5107,"BSTAR":0,"MEAN_MOTION_DOT":-1.01e-6,"MEAN_MOTION_DDOT":0},{"OBJECT_NAME":"YAHSAT 1B","OBJECT_ID":"2012-016A","EPOCH":"2026-04-04T21:34:08.014368","MEAN_MOTION":1.00270437,"ECCENTRICITY":0.00027315,"INCLINATION":0.091,"RA_OF_ASC_NODE":87.2422,"ARG_OF_PERICENTER":292.3755,"MEAN_ANOMALY":184.7091,"EPHEMERIS_TYPE":0,"CLASSIFICATION_TYPE":"U","NORAD_CAT_ID":38245,"ELEMENT_SET_NO":999,"REV_AT_EPOCH":4487,"BSTAR":0,"MEAN_MOTION_DOT":1.27e-6,"MEAN_MOTION_DDOT":0},{"OBJECT_NAME":"AEHF-2 (USA 235)","OBJECT_ID":"2012-019A","EPOCH":"2026-04-04T17:50:29.643360","MEAN_MOTION":1.00271257,"ECCENTRICITY":0.00028588,"INCLINATION":6.4812,"RA_OF_ASC_NODE":58.0145,"ARG_OF_PERICENTER":302.6143,"MEAN_ANOMALY":83.5796,"EPHEMERIS_TYPE":0,"CLASSIFICATION_TYPE":"U","NORAD_CAT_ID":38254,"ELEMENT_SET_NO":999,"REV_AT_EPOCH":625,"BSTAR":0,"MEAN_MOTION_DOT":-1.32e-6,"MEAN_MOTION_DDOT":0},{"OBJECT_NAME":"JCSAT-13","OBJECT_ID":"2012-023A","EPOCH":"2026-04-04T21:55:58.418976","MEAN_MOTION":1.00270483,"ECCENTRICITY":0.00026791,"INCLINATION":0.0442,"RA_OF_ASC_NODE":77.6496,"ARG_OF_PERICENTER":327.0859,"MEAN_ANOMALY":241.4734,"EPHEMERIS_TYPE":0,"CLASSIFICATION_TYPE":"U","NORAD_CAT_ID":38331,"ELEMENT_SET_NO":999,"REV_AT_EPOCH":5080,"BSTAR":0,"MEAN_MOTION_DOT":-3.55e-6,"MEAN_MOTION_DDOT":0},{"OBJECT_NAME":"VINASAT-2","OBJECT_ID":"2012-023B","EPOCH":"2026-04-04T21:58:13.203840","MEAN_MOTION":1.0027261,"ECCENTRICITY":0.00028346,"INCLINATION":0.0392,"RA_OF_ASC_NODE":46.2876,"ARG_OF_PERICENTER":347.1596,"MEAN_ANOMALY":261.1738,"EPHEMERIS_TYPE":0,"CLASSIFICATION_TYPE":"U","NORAD_CAT_ID":38332,"ELEMENT_SET_NO":999,"REV_AT_EPOCH":4592,"BSTAR":0,"MEAN_MOTION_DOT":-3.28e-6,"MEAN_MOTION_DDOT":0}]
